{
    "links": {
        "self": "http://www.neowsapp.com/rest/v1/neo/54016812?api_key=iIulBulltgU6a56xZRHN4H3l9WmuAYTsLGpBGhQ2"
    },
    "id": "54016812",
    "neo_reference_id": "54016812",
    "name": "(2020 HB8)",
    "designation": "2020 HB8",
    "nasa_jpl_url": "http://ssd.jpl.nasa.gov/sbdb.cgi?sstr=54016812",
    "absolute_magnitude_h": 24.871,
    "estimated_diameter": {
        "kilometers": {
            "estimated_diameter_min": 0.0282068752,
            "estimated_diameter_max": 0.0630724903
        },
        "meters": {
            "estimated_diameter_min": 28.2068751728,
            "estimated_diameter_max": 63.0724903193
        },
        "miles": {
            "estimated_diameter_min": 0.0175269342,
            "estimated_diameter_max": 0.0391914164
        },
        "feet": {
            "estimated_diameter_min": 92.542244342,
            "estimated_diameter_max": 206.9307491391
        }
    },
    "is_potentially_hazardous_asteroid": false,
    "close_approach_data": [
        {
            "close_approach_date": "2012-10-22",
            "close_approach_date_full": "2012-Oct-22 13:34",
            "epoch_date_close_approach": 1350912840000,
            "relative_velocity": {
                "kilometers_per_second": "7.7664636757",
                "kilometers_per_hour": "27959.2692326219",
                "miles_per_hour": "17372.8025962366"
            },
            "miss_distance": {
                "astronomical": "0.095534564",
                "lunar": "37.162945396",
                "kilometers": "14291767.28577868",
                "miles": "8880492.397478584"
            },
            "orbiting_body": "Earth"
        },
        {
            "close_approach_date": "2020-05-02",
            "close_approach_date_full": "2020-May-02 14:35",
            "epoch_date_close_approach": 1588430100000,
            "relative_velocity": {
                "kilometers_per_second": "7.637461362",
                "kilometers_per_hour": "27494.8609031426",
                "miles_per_hour": "17084.2373206221"
            },
            "miss_distance": {
                "astronomical": "0.1313967427",
                "lunar": "51.1133329103",
                "kilometers": "19656672.832858049",
                "miles": "12214090.1234531162"
            },
            "orbiting_body": "Earth"
        },
        {
            "close_approach_date": "2020-10-13",
            "close_approach_date_full": "2020-Oct-13 06:04",
            "epoch_date_close_approach": 1602569040000,
            "relative_velocity": {
                "kilometers_per_second": "9.9845890481",
                "kilometers_per_hour": "35944.5205730186",
                "miles_per_hour": "22334.527241607"
            },
            "miss_distance": {
                "astronomical": "0.2607884222",
                "lunar": "101.4466962358",
                "kilometers": "39013392.481780714",
                "miles": "24241797.9810692932"
            },
            "orbiting_body": "Earth"
        }
    ],
    "orbital_data": {
        "orbit_id": "4",
        "orbit_determination_date": "2020-05-06 05:55:33",
        "first_observation_date": "2020-04-26",
        "last_observation_date": "2020-05-04",
        "data_arc_in_days": 8,
        "observations_used": 27,
        "orbit_uncertainty": "8",
        "minimum_orbit_intersection": ".0745226",
        "jupiter_tisserand_invariant": "5.636",
        "epoch_osculation": "2458967.5",
        "eccentricity": ".0255995815237563",
        "semi_major_axis": "1.095996456119742",
        "inclination": "14.47966363871438",
        "ascending_node_longitude": "213.8350304659516",
        "orbital_period": "419.0946836200529",
        "perihelion_distance": "1.067939405491557",
        "perihelion_argument": "160.173224025331",
        "aphelion_distance": "1.124053506747928",
        "perihelion_time": "2459143.591432274640",
        "mean_anomaly": "208.738440031509",
        "mean_motion": ".8589944326909488",
        "equinox": "J2000",
        "orbit_class": {
            "orbit_class_type": "AMO",
            "orbit_class_description": "Near-Earth asteroid orbits similar to that of 1221 Amor",
            "orbit_class_range": "1.017 AU < q (perihelion) < 1.3 AU"
        }
    },
    "is_sentry_object": false
}